NORAD_CAT_ID,OBJECT_NAME,OBJECT_TYPE,EPOCH,MEAN_MOTION,ECCENTRICITY,INCLINATION,RA_OF_ASC_NODE,ARG_OF_PERICENTER,MEAN_ANOMALY,BSTAR,MEAN_MOTION_DOT,MEAN_MOTION_DDOT,TLE_LINE0,TLE_LINE1,TLE_LINE2,SEMIMAJOR_AXIS,PERIOD,APOGEE,PERIGEE,DECAYED
55637.0,STARLINK-5062,PAYLOAD,2023-05-15 16:47:15,15.69916393,0.0003162,69.9998,265.5366,262.1611,97.9226,2.9419e-05,3.325e-05,0.0,0 STARLINK-5062,1 55637U 23021K   23135.69948342  .00003325  00000-0  29419-4 0  9995,2 55637  69.9998 265.5366 0003162 262.1611  97.9226 15.69916393 14194,6737.273,91.725,361.269,357.008,0.0
55637.0,STARLINK-5062,PAYLOAD,2023-05-16 11:08:16,15.69926502,0.0003429,69.9994,263.3864,264.4488,95.6317,6.1499e-07,-1.39e-06,0.0,0 STARLINK-5062,1 55637U 23021K   23136.46408146 -.00000139  00000-0  61499-6 0  9991,2 55637  69.9994 263.3864 0003429 264.4488  95.6317 15.69926502 14618,6737.244,91.724,361.419,356.799,0.0
55637.0,STARLINK-5062,PAYLOAD,2023-05-17 10:04:33,15.69920737,0.0003438,69.9992,260.6994,268.9012,91.179,6.5435e-06,5.74e-06,0.0,0 STARLINK-5062,1 55637U 23021K   23137.41983467  .00000574  00000-0  65435-5 0  9996,2 55637  69.9992 260.6994 0003438 268.9012  91.1790 15.69920737 14465,6737.261,91.724,361.442,356.809,0.0
55637.0,STARLINK-5062,PAYLOAD,2023-05-17 17:43:18,15.69927026,0.0003288,69.9992,259.8037,268.4154,91.6665,1.2557e-05,1.298e-05,0.0,0 STARLINK-5062,1 55637U 23021K   23137.73841321  .00001298  00000-0  12557-4 0  9993,2 55637  69.9992 259.8037 0003288 268.4154  91.6665 15.69927026 14811,6737.243,91.724,361.323,356.893,0.0
55637.0,STARLINK-5062,PAYLOAD,2023-05-18 10:32:35,15.6991819,0.000336,69.9993,257.8329,261.4231,98.6584,6.5667e-06,5.77e-06,0.0,0 STARLINK-5062,1 55637U 23021K   23138.43930356  .00000577  00000-0  65667-5 0  9998,2 55637  69.9993 257.8329 0003360 261.4231  98.6584 15.69918190 14622,6737.268,91.725,361.397,356.869,0.0
55637.0,STARLINK-5062,PAYLOAD,2023-05-18 18:11:21,15.69918108,0.0003568,69.998,256.9356,268.8139,91.2648,2.8226e-06,1.26e-06,0.0,0 STARLINK-5062,1 55637U 23021K   23138.75788972  .00000126  00000-0  28226-5 0  9998,2 55637  69.9980 256.9356 0003568 268.8139  91.2648 15.69918108 14973,6737.268,91.725,361.537,356.729,0.0
55637.0,STARLINK-5062,PAYLOAD,2023-05-19 09:29:13,15.69647022,0.0004692,69.9993,255.1463,283.208,76.8592,-0.0003,-0.00035735,0.0,0 STARLINK-5062,1 55637U 23021K   23139.39529161 -.00035735  00000-0 -30000-3 0  9999,2 55637  69.9993 255.1463 0004692 283.2080  76.8592 15.69647022 14771,6738.044,91.74,363.07,356.747,0.0
55637.0,STARLINK-5062,PAYLOAD,2023-05-19 11:02:29,15.68386251,0.0004798,69.9978,254.9696,130.0224,230.1392,-0.0017694,-0.00195423,0.0,0 STARLINK-5062,1 55637U 23021K   23139.46006655 -.00195423  00000-0 -17694-2 0  9999,2 55637  69.9978 254.9696 0004798 130.0224 230.1392 15.68386251 14782,6741.654,91.814,366.754,360.285,0.0
55637.0,STARLINK-5062,PAYLOAD,2023-05-20 06:00:00,15.67685662,0.0003407,70.0016,252.7473,266.2635,239.6964,-0.0091148,-0.00912059,0.0,0 STARLINK-5062,1 55637U 23021K   23140.25001157 -.00912059  00000-0 -91148-2 0  9998,2 55637  70.0016 252.7473 0003407 266.2635 239.6964 15.67685662 14901,6743.663,91.855,367.825,363.23,0.0
55637.0,STARLINK-5062,PAYLOAD,2023-05-20 22:00:01,15.66394915,0.0003483,70.0011,250.8809,272.8816,32.8561,-0.010144,-0.00958535,0.0,0 STARLINK-5062,1 55637U 23021K   23140.91668981 -.00958535  00000-0 -10144-1 0  9990,2 55637  70.0011 250.8809 0003483 272.8816  32.8561 15.66394915 15001,6747.367,91.931,371.582,366.882,0.0
55637.0,STARLINK-5062,PAYLOAD,2023-05-21 10:30:39,15.66916592,0.0004062,69.999,249.4291,294.0433,66.0336,-0.0024078,-0.00248808,0.0,0 STARLINK-5062,1 55637U 23021K   23141.43795687 -.00248808  00000-0 -24078-2 0  9999,2 55637  69.9990 249.4291 0004062 294.0433  66.0336 15.66916592 15390,6745.869,91.9,370.474,364.994,0.0
55637.0,STARLINK-5062,PAYLOAD,2023-05-21 14:00:01,15.65050496,0.0003658,70.0015,249.0186,276.1451,186.1246,-0.0099013,-0.00892534,0.0,0 STARLINK-5062,1 55637U 23021K   23141.58334491 -.00892534  00000-0 -99013-2 0  9999,2 55637  70.0015 249.0186 0003658 276.1451 186.1246 15.65050496 15116,6751.231,92.01,375.565,370.626,0.0
55637.0,STARLINK-5062,PAYLOAD,2023-05-22 00:00:00,15.64247929,0.0003599,70.0011,247.8562,270.6796,17.8561,-0.010474,-0.00912522,0.0,0 STARLINK-5062,1 55637U 23021K   23142.00001157 -.00912522  00000-0 -10474-1 0  9990,2 55637  70.0011 247.8562 0003599 270.6796  17.8561 15.64247929  1305,6753.54,92.057,377.835,372.974,0.0
55637.0,STARLINK-5062,PAYLOAD,2023-05-22 06:00:02,15.63775903,0.0003584,70.0011,247.1596,265.8868,349.8799,-0.010764,-0.00919708,0.0,0 STARLINK-5062,1 55637U 23021K   23142.25002315 -.00919708  00000-0 -10764-1 0  9999,2 55637  70.0011 247.1596 0003584 265.8868 349.8799 15.63775903 15218,6754.899,92.085,379.184,374.343,0.0
55637.0,STARLINK-5062,PAYLOAD,2023-05-22 09:31:48,15.65028939,0.000384,69.9985,246.7575,271.359,88.7163,-0.0025313,-0.00242671,0.0,0 STARLINK-5062,1 55637U 23021K   23142.39709230 -.00242671  00000-0 -25313-2 0  9999,2 55637  69.9985 246.7575 0003840 271.3590  88.7163 15.65028939 15548,6751.293,92.011,375.75,370.565,0.0
55637.0,STARLINK-5062,PAYLOAD,2023-05-22 22:00:00,15.62478803,0.0003551,70.0005,245.3043,271.813,134.2154,-0.011768,-0.00952185,0.0,0 STARLINK-5062,1 55637U 23021K   23142.91667824 -.00952185  00000-0 -11768-1 0  9995,2 55637  70.0005 245.3043 0003551 271.8130 134.2154 15.62478803  1305,6758.636,92.161,382.901,378.101,0.0
55637.0,STARLINK-5062,PAYLOAD,2023-05-23 06:00:00,15.61827333,0.0003382,70.001,244.3781,267.4562,212.5537,-0.011804,-0.00932938,0.0,0 STARLINK-5062,1 55637U 23021K   23143.25001157 -.00932938  00000-0 -11804-1 0  9999,2 55637  70.0010 244.3781 0003382 267.4562 212.5537 15.61827333 15373,6760.516,92.2,384.667,380.094,0.0
55637.0,STARLINK-5062,PAYLOAD,2023-05-23 22:00:00,15.60521848,0.000335,70.0003,242.5282,270.2609,355.3852,-0.012724,-0.0095393,0.0,0 STARLINK-5062,1 55637U 23021K   23143.91667824 -.00953930  00000-0 -12724-1 0  9998,2 55637  70.0003 242.5282 0003350 270.2609 355.3852 15.60521848  1305,6764.286,92.277,388.417,383.885,0.0
55637.0,STARLINK-5062,PAYLOAD,2023-05-24 14:00:01,15.59172582,0.0003362,70.0004,240.682,275.998,132.2244,-0.012087,-0.00868373,0.0,0 STARLINK-5062,1 55637U 23021K   23144.58335648 -.00868373  00000-0 -12087-1 0  9996,2 55637  70.0004 240.6820 0003362 275.9980 132.2244 15.59172582 15587,6768.188,92.357,392.328,387.777,0.0
55637.0,STARLINK-5062,PAYLOAD,2023-05-24 22:00:00,15.58552136,0.0003237,70.0,239.7602,273.8496,204.3778,-0.013377,-0.0093226,0.0,0 STARLINK-5062,1 55637U 23021K   23144.91667824 -.00932260  00000-0 -13377-1 0  9997,2 55637  70.0000 239.7602 0003237 273.8496 204.3778 15.58552136  1304,6769.984,92.393,394.04,389.657,0.0
55637.0,STARLINK-5062,PAYLOAD,2023-05-25 06:00:00,15.57918428,0.0003231,70.0005,238.8397,266.0887,281.4214,-0.013838,-0.00940694,0.0,0 STARLINK-5062,1 55637U 23021K   23145.25001157 -.00940694  00000-0 -13838-1 0  9998,2 55637  70.0005 238.8397 0003231 266.0887 281.4214 15.57918428 15688,6771.819,92.431,395.872,391.496,0.0
55637.0,STARLINK-5062,PAYLOAD,2023-05-25 14:00:01,15.57216993,0.0003295,70.0003,237.9197,272.0084,344.0322,-0.013054,-0.00870788,0.0,0 STARLINK-5062,1 55637U 23021K   23145.58334491 -.00870788  00000-0 -13054-1 0  9990,2 55637  70.0003 237.9197 0003295 272.0084 344.0322 15.57216993  1308,6773.853,92.473,397.95,393.486,0.0
55637.0,STARLINK-5062,PAYLOAD,2023-05-26 00:00:02,15.56392486,0.0003372,70.0,236.7708,270.9159,159.7334,-0.013267,-0.00859219,0.0,0 STARLINK-5062,1 55637U 23021K   23146.00002315 -.00859219  00000-0 -13267-1 0  9997,2 55637  70.0000 236.7708 0003372 270.9159 159.7334 15.56392486  1301,6776.245,92.522,400.395,395.825,0.0
55637.0,STARLINK-5062,PAYLOAD,2023-05-26 14:00:01,15.55263264,0.0003294,70.0003,235.1649,275.6336,181.2485,-0.014126,-0.00875743,0.0,0 STARLINK-5062,1 55637U 23021K   23146.58334491 -.00875743  00000-0 -14126-1 0  9998,2 55637  70.0003 235.1649 0003294 275.6336 181.2485 15.55263264 15899,6779.524,92.589,403.623,399.156,0.0
55637.0,STARLINK-5062,PAYLOAD,2023-05-26 22:00:01,15.54630414,0.0003199,70.0,234.2484,272.7228,249.6031,-0.015217,-0.00917469,0.0,0 STARLINK-5062,1 55637U 23021K   23146.91668981 -.00917469  00000-0 -15217-1 0  9993,2 55637  70.0000 234.2484 0003199 272.7228 249.6031 15.54630414  1306,6781.364,92.627,405.399,401.06,0.0
55637.0,STARLINK-5062,PAYLOAD,2023-05-27 06:00:02,15.54006277,0.0003291,70.0002,233.3331,266.8253,320.0865,-0.016001,-0.00940571,0.0,0 STARLINK-5062,1 55637U 23021K   23147.25002315 -.00940571  00000-0 -16001-1 0  9996,2 55637  70.0002 233.3331 0003291 266.8253 320.0865 15.54006277 15997,6783.18,92.664,407.277,402.812,0.0
55637.0,STARLINK-5062,PAYLOAD,2023-05-27 22:00:00,15.52665141,0.0003454,70.0,231.5046,270.3258,83.3939,-0.016114,-0.0090555,0.0,0 STARLINK-5062,1 55637U 23021K   23147.91667824 -.00905550  00000-0 -16114-1 0  9994,2 55637  70.0000 231.5046 0003454 270.3258  83.3939 15.52665141  1304,6787.085,92.744,411.295,406.606,0.0
55637.0,STARLINK-5062,PAYLOAD,2023-05-28 06:00:00,15.52022493,0.0003538,70.0004,230.5919,267.5968,148.3654,-0.015993,-0.00880529,0.0,0 STARLINK-5062,1 55637U 23021K   23148.25001157 -.00880529  00000-0 -15993-1 0  9995,2 55637  70.0004 230.5919 0003538 267.5968 148.3654 15.52022493  1308,6788.959,92.782,413.226,408.422,0.0
55637.0,STARLINK-5062,PAYLOAD,2023-05-28 14:00:01,15.51234079,0.0003573,70.0004,229.68,274.8718,202.588,-0.00045684,-0.00026919,0.0,0 STARLINK-5062,1 55637U 23021K   23148.58334491 -.00026919  00000-0 -45684-3 0  9998,2 55637  70.0004 229.6800 0003573 274.8718 202.5880 15.51234079 16202,6791.259,92.829,415.55,410.697,0.0
55637.0,STARLINK-5062,PAYLOAD,2023-05-28 22:00:00,15.51227888,0.0003681,70.0001,228.7683,273.4031,264.9686,-0.00032368,-0.00019135,0.0,0 STARLINK-5062,1 55637U 23021K   23148.91667824 -.00019135  00000-0 -32368-3 0  9991,2 55637  70.0001 228.7683 0003681 273.4031 264.9686 15.51227888  1302,6791.277,92.83,415.642,410.642,0.0
